{"fetched_at":"2026-07-18T06:27:44.179Z","source":"https://celestrak.org/NORAD/elements/gp.php?GROUP=kuiper&FORMAT=JSON","constellation":"kuiper","records":[{"OBJECT_NAME":"KUIPER-00408","OBJECT_ID":"2026-098F","EPOCH":"2026-07-17T06:37:30.629280","CLASSIFICATION_TYPE":"U","MEAN_MOTION":15.25406331,"ECCENTRICITY":0.0014659,"INCLINATION":51.8742,"RA_OF_ASC_NODE":286.0779,"ARG_OF_PERICENTER":271.8918,"MEAN_ANOMALY":88.0385,"EPHEMERIS_TYPE":0,"NORAD_CAT_ID":68924,"ELEMENT_SET_NO":999,"REV_AT_EPOCH":1192,"BSTAR":-0.00043298,"MEAN_MOTION_DOT":-0.00011457,"MEAN_MOTION_DDOT":0},{"OBJECT_NAME":"KUIPER-00409","OBJECT_ID":"2026-098G","EPOCH":"2026-07-17T22:00:01.999584","CLASSIFICATION_TYPE":"U","MEAN_MOTION":14.97882838,"ECCENTRICITY":0.00059356,"INCLINATION":51.8941,"RA_OF_ASC_NODE":282.9379,"ARG_OF_PERICENTER":273.5584,"MEAN_ANOMALY":335.3935,"EPHEMERIS_TYPE":0,"NORAD_CAT_ID":68925,"ELEMENT_SET_NO":999,"REV_AT_EPOCH":386,"BSTAR":-0.0051419742,"MEAN_MOTION_DOT":-0.00060942,"MEAN_MOTION_DDOT":0},{"OBJECT_NAME":"KUIPER-00410","OBJECT_ID":"2026-098H","EPOCH":"2026-07-17T22:00:01.999584","CLASSIFICATION_TYPE":"U","MEAN_MOTION":15.24330421,"ECCENTRICITY":0.00137882,"INCLINATION":51.8731,"RA_OF_ASC_NODE":282.9776,"ARG_OF_PERICENTER":256.6049,"MEAN_ANOMALY":48.0419,"EPHEMERIS_TYPE":0,"NORAD_CAT_ID":68926,"ELEMENT_SET_NO":999,"REV_AT_EPOCH":535,"BSTAR":-0.075501414,"MEAN_MOTION_DOT":-0.01700054,"MEAN_MOTION_DDOT":0},{"OBJECT_NAME":"KUIPER-00412","OBJECT_ID":"2026-098J","EPOCH":"2026-07-17T14:38:12.080256","CLASSIFICATION_TYPE":"U","MEAN_MOTION":15.37568123,"ECCENTRICITY":0.0003751,"INCLINATION":51.8771,"RA_OF_ASC_NODE":280.1925,"ARG_OF_PERICENTER":355.8786,"MEAN_ANOMALY":4.2169,"EPHEMERIS_TYPE":0,"NORAD_CAT_ID":68927,"ELEMENT_SET_NO":999,"REV_AT_EPOCH":1203,"BSTAR":0.00031644,"MEAN_MOTION_DOT":0.00011475,"MEAN_MOTION_DDOT":0},{"OBJECT_NAME":"KUIPER-00413","OBJECT_ID":"2026-098K","EPOCH":"2026-07-17T22:00:01.999584","CLASSIFICATION_TYPE":"U","MEAN_MOTION":14.96673788,"ECCENTRICITY":0.00237819,"INCLINATION":51.8923,"RA_OF_ASC_NODE":285.2949,"ARG_OF_PERICENTER":276.5102,"MEAN_ANOMALY":298.4546,"EPHEMERIS_TYPE":0,"NORAD_CAT_ID":68928,"ELEMENT_SET_NO":999,"REV_AT_EPOCH":550,"BSTAR":-0.0054633691,"MEAN_MOTION_DOT":-0.00063093,"MEAN_MOTION_DDOT":0},{"OBJECT_NAME":"KUIPER-00414","OBJECT_ID":"2026-098L","EPOCH":"2026-07-17T17:08:28.728096","CLASSIFICATION_TYPE":"U","MEAN_MOTION":14.79927311,"ECCENTRICITY":0.00011565,"INCLINATION":51.8979,"RA_OF_ASC_NODE":295.7666,"ARG_OF_PERICENTER":283.4257,"MEAN_ANOMALY":76.6577,"EPHEMERIS_TYPE":0,"NORAD_CAT_ID":68929,"ELEMENT_SET_NO":999,"REV_AT_EPOCH":1182,"BSTAR":0.00020704225,"MEAN_MOTION_DOT":0.00001357,"MEAN_MOTION_DDOT":0},{"OBJECT_NAME":"KUIPER-00415","OBJECT_ID":"2026-098M","EPOCH":"2026-07-17T22:00:01.999584","CLASSIFICATION_TYPE":"U","MEAN_MOTION":15.27366107,"ECCENTRICITY":0.0008581,"INCLINATION":51.8792,"RA_OF_ASC_NODE":281.3823,"ARG_OF_PERICENTER":253.4449,"MEAN_ANOMALY":127.8282,"EPHEMERIS_TYPE":0,"NORAD_CAT_ID":68930,"ELEMENT_SET_NO":999,"REV_AT_EPOCH":511,"BSTAR":-0.048310841,"MEAN_MOTION_DOT":-0.01209757,"MEAN_MOTION_DDOT":0},{"OBJECT_NAME":"KUIPER-00416","OBJECT_ID":"2026-098N","EPOCH":"2026-07-17T22:14:19.890240","CLASSIFICATION_TYPE":"U","MEAN_MOTION":15.37617685,"ECCENTRICITY":0.00018939,"INCLINATION":51.8751,"RA_OF_ASC_NODE":278.5439,"ARG_OF_PERICENTER":338.4639,"MEAN_ANOMALY":21.6268,"EPHEMERIS_TYPE":0,"NORAD_CAT_ID":68931,"ELEMENT_SET_NO":999,"REV_AT_EPOCH":1208,"BSTAR":0.00032176376,"MEAN_MOTION_DOT":0.00011694,"MEAN_MOTION_DDOT":0},{"OBJECT_NAME":"KUIPER-00420","OBJECT_ID":"2026-098P","EPOCH":"2026-07-17T14:06:01.661472","CLASSIFICATION_TYPE":"U","MEAN_MOTION":15.3676291,"ECCENTRICITY":0.00038107,"INCLINATION":51.8764,"RA_OF_ASC_NODE":280.7749,"ARG_OF_PERICENTER":324.1955,"MEAN_ANOMALY":35.8775,"EPHEMERIS_TYPE":0,"NORAD_CAT_ID":68932,"ELEMENT_SET_NO":999,"REV_AT_EPOCH":1202,"BSTAR":0.00026627766,"MEAN_MOTION_DOT":0.00009338,"MEAN_MOTION_DDOT":0},{"OBJECT_NAME":"KUIPER-00421","OBJECT_ID":"2026-098Q","EPOCH":"2026-07-17T13:22:32.125728","CLASSIFICATION_TYPE":"U","MEAN_MOTION":15.30100089,"ECCENTRICITY":0.0007416,"INCLINATION":51.8766,"RA_OF_ASC_NODE":282.7706,"ARG_OF_PERICENTER":236.7777,"MEAN_ANOMALY":123.2496,"EPHEMERIS_TYPE":0,"NORAD_CAT_ID":68933,"ELEMENT_SET_NO":999,"REV_AT_EPOCH":1199,"BSTAR":0.000064141,"MEAN_MOTION_DOT":0.00001533,"MEAN_MOTION_DDOT":0},{"OBJECT_NAME":"KUIPER-00425","OBJECT_ID":"2026-098R","EPOCH":"2026-07-17T22:00:01.999584","CLASSIFICATION_TYPE":"U","MEAN_MOTION":15.06272883,"ECCENTRICITY":0.00130516,"INCLINATION":51.8889,"RA_OF_ASC_NODE":283.6883,"ARG_OF_PERICENTER":269.0552,"MEAN_ANOMALY":28.6359,"EPHEMERIS_TYPE":0,"NORAD_CAT_ID":68934,"ELEMENT_SET_NO":999,"REV_AT_EPOCH":531,"BSTAR":-0.0037365065,"MEAN_MOTION_DOT":-0.00055472,"MEAN_MOTION_DDOT":0},{"OBJECT_NAME":"KUIPER-00430","OBJECT_ID":"2026-098S","EPOCH":"2026-07-17T22:00:01.999584","CLASSIFICATION_TYPE":"U","MEAN_MOTION":14.94818711,"ECCENTRICITY":0.00135869,"INCLINATION":51.8915,"RA_OF_ASC_NODE":285.099,"ARG_OF_PERICENTER":271.2908,"MEAN_ANOMALY":135.4984,"EPHEMERIS_TYPE":0,"NORAD_CAT_ID":68935,"ELEMENT_SET_NO":999,"REV_AT_EPOCH":410,"BSTAR":-0.0063489207,"MEAN_MOTION_DOT":-0.00069532,"MEAN_MOTION_DDOT":0},{"OBJECT_NAME":"KUIPER-00431","OBJECT_ID":"2026-098T","EPOCH":"2026-07-17T22:00:01.999584","CLASSIFICATION_TYPE":"U","MEAN_MOTION":14.82179668,"ECCENTRICITY":0.00097569,"INCLINATION":51.8978,"RA_OF_ASC_NODE":287.2914,"ARG_OF_PERICENTER":266.8032,"MEAN_ANOMALY":38.8911,"EPHEMERIS_TYPE":0,"NORAD_CAT_ID":68936,"ELEMENT_SET_NO":999,"REV_AT_EPOCH":477,"BSTAR":-0.01210742,"MEAN_MOTION_DOT":-0.00096342,"MEAN_MOTION_DDOT":0},{"OBJECT_NAME":"KUIPER-00432","OBJECT_ID":"2026-098U","EPOCH":"2026-07-17T22:00:01.999584","CLASSIFICATION_TYPE":"U","MEAN_MOTION":15.17188722,"ECCENTRICITY":0.00111505,"INCLINATION":51.8753,"RA_OF_ASC_NODE":282.3774,"ARG_OF_PERICENTER":264.9253,"MEAN_ANOMALY":353.2435,"EPHEMERIS_TYPE":0,"NORAD_CAT_ID":68937,"ELEMENT_SET_NO":999,"REV_AT_EPOCH":390,"BSTAR":-0.0040957917,"MEAN_MOTION_DOT":-0.00081963,"MEAN_MOTION_DDOT":0},{"OBJECT_NAME":"KUIPER-00434","OBJECT_ID":"2026-098V","EPOCH":"2026-07-17T22:00:01.999584","CLASSIFICATION_TYPE":"U","MEAN_MOTION":14.96840303,"ECCENTRICITY":0.00017326,"INCLINATION":51.8867,"RA_OF_ASC_NODE":282.9034,"ARG_OF_PERICENTER":120.5353,"MEAN_ANOMALY":284.2708,"EPHEMERIS_TYPE":0,"NORAD_CAT_ID":68938,"ELEMENT_SET_NO":999,"REV_AT_EPOCH":379,"BSTAR":-0.0063425148,"MEAN_MOTION_DOT":-0.00072963,"MEAN_MOTION_DDOT":0},{"OBJECT_NAME":"KUIPER-00436","OBJECT_ID":"2026-098W","EPOCH":"2026-07-17T22:00:01.999584","CLASSIFICATION_TYPE":"U","MEAN_MOTION":15.00650638,"ECCENTRICITY":0.0008381,"INCLINATION":51.8861,"RA_OF_ASC_NODE":283.1324,"ARG_OF_PERICENTER":268.9231,"MEAN_ANOMALY":1.2153,"EPHEMERIS_TYPE":0,"NORAD_CAT_ID":68939,"ELEMENT_SET_NO":999,"REV_AT_EPOCH":547,"BSTAR":-0.0048703177,"MEAN_MOTION_DOT":-0.00062062,"MEAN_MOTION_DDOT":0}]}
