KUIPER-00408            
1 68924U 26098F   26198.27604895 -.00011457  00000+0 -43298-3 0  9999
2 68924  51.8742 286.0779 0014659 271.8918  88.0385 15.25406331 11923
KUIPER-00409            
1 68925U 26098G   26198.91668981 -.00060942  00000+0 -51420-2 0  9995
2 68925  51.8941 282.9379 0005935 273.5584 335.3935 14.97882838  3862
KUIPER-00410            
1 68926U 26098H   26198.91668981 -.01700054  00000+0 -75501-1 0  9997
2 68926  51.8731 282.9776 0013788 256.6049  48.0419 15.24330421  5352
KUIPER-00412            
1 68927U 26098J   26198.60986204  .00011475  00000+0  31644-3 0  9996
2 68927  51.8771 280.1925 0003751 355.8786   4.2169 15.37568123 12037
KUIPER-00413            
1 68928U 26098K   26198.91668981 -.00063093  00000+0 -54634-2 0  9998
2 68928  51.8923 285.2949 0023781 276.5102 298.4546 14.96673788  5503
KUIPER-00414            
1 68929U 26098L   26198.71422139  .00001357  00000+0  20704-3 0  9995
2 68929  51.8979 295.7666 0001156 283.4257  76.6577 14.79927311 11824
KUIPER-00415            
1 68930U 26098M   26198.91668981 -.01209757  00000+0 -48311-1 0  9995
2 68930  51.8792 281.3823 0008581 253.4449 127.8282 15.27366107  5115
KUIPER-00416            
1 68931U 26098N   26198.92661910  .00011694  00000+0  32176-3 0  9994
2 68931  51.8751 278.5439 0001893 338.4639  21.6268 15.37617685 12086
KUIPER-00420            
1 68932U 26098P   26198.58751923  .00009338  00000+0  26628-3 0  9998
2 68932  51.8764 280.7749 0003810 324.1955  35.8775 15.36762910 12029
KUIPER-00421            
1 68933U 26098Q   26198.55731627  .00001533  00000+0  64141-4 0  9997
2 68933  51.8766 282.7706 0007416 236.7777 123.2496 15.30100089 11997
KUIPER-00425            
1 68934U 26098R   26198.91668981 -.00055472  00000+0 -37365-2 0  9999
2 68934  51.8889 283.6883 0013051 269.0552  28.6359 15.06272883  5312
KUIPER-00430            
1 68935U 26098S   26198.91668981 -.00069532  00000+0 -63489-2 0  9998
2 68935  51.8915 285.0990 0013586 271.2908 135.4984 14.94818711  4100
KUIPER-00431            
1 68936U 26098T   26198.91668981 -.00096342  00000+0 -12107-1 0  9998
2 68936  51.8978 287.2914 0009756 266.8032  38.8911 14.82179668  4779
KUIPER-00432            
1 68937U 26098U   26198.91668981 -.00081963  00000+0 -40958-2 0  9998
2 68937  51.8753 282.3774 0011150 264.9253 353.2435 15.17188722  3905
KUIPER-00434            
1 68938U 26098V   26198.91668981 -.00072963  00000+0 -63425-2 0  9993
2 68938  51.8867 282.9034 0001732 120.5353 284.2708 14.96840303  3799
KUIPER-00436            
1 68939U 26098W   26198.91668981 -.00062062  00000+0 -48703-2 0  9995
2 68939  51.8861 283.1324 0008381 268.9231   1.2153 15.00650638  5472
